[{"OBJECT_NAME":"FORTE","OBJECT_ID":"1997-047A","EPOCH":"2026-03-09T21:41:12.798240","MEAN_MOTION":14.27898785,"ECCENTRICITY":0.00196357,"INCLINATION":69.9517,"RA_OF_ASC_NODE":238.2652,"ARG_OF_PERICENTER":49.0734,"MEAN_ANOMALY":311.2084,"EPHEMERIS_TYPE":0,"CLASSIFICATION_TYPE":"U","NORAD_CAT_ID":24920,"ELEMENT_SET_NO":999,"REV_AT_EPOCH":48451,"BSTAR":0.0001374801,"MEAN_MOTION_DOT":2.83e-6,"MEAN_MOTION_DDOT":0},{"OBJECT_NAME":"THORAD AGENA D DEB","OBJECT_ID":"1970-025SS","EPOCH":"2026-03-06T14:16:26.680800","MEAN_MOTION":14.12209274,"ECCENTRICITY":0.00604719,"INCLINATION":99.4946,"RA_OF_ASC_NODE":6.4508,"ARG_OF_PERICENTER":265.363,"MEAN_ANOMALY":94.0631,"EPHEMERIS_TYPE":0,"CLASSIFICATION_TYPE":"U","NORAD_CAT_ID":42536,"ELEMENT_SET_NO":999,"REV_AT_EPOCH":62602,"BSTAR":0.0033248411,"MEAN_MOTION_DOT":6.171e-5,"MEAN_MOTION_DDOT":0}]
